FLOCK 3P-54             
1 42014U 17008BU  17345.84224466  .00001386  00000-0  60949-4 0  9993
2 42014  97.4754  46.7163 0006398 324.8005  35.2809 15.23568710 45547
